NORAD_CAT_ID,OBJECT_NAME,OBJECT_TYPE,EPOCH,MEAN_MOTION,ECCENTRICITY,INCLINATION,RA_OF_ASC_NODE,ARG_OF_PERICENTER,MEAN_ANOMALY,BSTAR,MEAN_MOTION_DOT,MEAN_MOTION_DDOT,TLE_LINE0,TLE_LINE1,TLE_LINE2,SEMIMAJOR_AXIS,PERIOD,APOGEE,PERIGEE,DECAYED
52706.0,STARLINK-3970,PAYLOAD,2023-09-24 03:05:50,15.08843856,0.0001408,53.2147,203.4211,106.658,253.4566,0.00031348,4.705e-05,0.0,0 STARLINK-3970,1 52706U 22053BC  23267.12905635  .00004705  00000-0  31348-3 0  9991,2 52706  53.2147 203.4211 0001408 106.6580 253.4566 15.08843856 75388,6917.869,95.437,540.708,538.76,0.0
52706.0,STARLINK-3970,PAYLOAD,2023-09-24 06:16:36,15.08844066,0.0001374,53.2154,202.8321,100.7912,259.3235,0.00037634,5.707e-05,0.0,0 STARLINK-3970,1 52706U 22053BC  23267.26153601  .00005707  00000-0  37634-3 0  9991,2 52706  53.2154 202.8321 0001374 100.7912 259.3235 15.08844066 75839,6917.868,95.437,540.683,538.782,0.0
52706.0,STARLINK-3970,PAYLOAD,2023-09-25 02:56:37,15.08850037,0.0001462,53.2151,198.9673,99.9474,260.1683,0.00039385,5.987e-05,0.0,0 STARLINK-3970,1 52706U 22053BC  23268.12265842  .00005987  00000-0  39385-3 0  9993,2 52706  53.2151 198.9673 0001462  99.9474 260.1683 15.08850037 75530,6917.85,95.437,540.726,538.703,0.0
52706.0,STARLINK-3970,PAYLOAD,2023-09-25 04:32:00,15.08858606,0.0001534,53.2149,198.6689,93.5126,266.6041,0.00098646,0.00015454,0.0,0 STARLINK-3970,1 52706U 22053BC  23268.18889680  .00015454  00000-0  98646-3 0  9996,2 52706  53.2149 198.6689 0001534  93.5126 266.6041 15.08858606 75545,6917.824,95.436,540.75,538.627,0.0
52706.0,STARLINK-3970,PAYLOAD,2023-09-25 12:28:56,15.08858831,0.0001789,53.2148,197.1828,78.8683,281.251,0.00075197,0.00011706,0.0,0 STARLINK-3970,1 52706U 22053BC  23268.52009602  .00011706  00000-0  75197-3 0  9994,2 52706  53.2148 197.1828 0001789  78.8683 281.2510 15.08858831 76027,6917.823,95.436,540.925,538.45,0.0
52706.0,STARLINK-3970,PAYLOAD,2023-09-26 04:22:46,15.08872418,0.0001545,53.2156,194.2078,84.5838,275.533,0.0008271,0.00012911,0.0,0 STARLINK-3970,1 52706U 22053BC  23269.18248287  .00012911  00000-0  82710-3 0  9999,2 52706  53.2156 194.2078 0001545  84.5838 275.5330 15.08872418 76121,6917.781,95.436,540.715,538.578,0.0
52706.0,STARLINK-3970,PAYLOAD,2023-09-26 18:41:15,15.08831366,0.0001206,53.2151,191.533,83.9012,276.2118,-0.00039234,-6.525e-05,0.0,0 STARLINK-3970,1 52706U 22053BC  23269.77865118 -.00006525  00000-0 -39234-3 0  9991,2 52706  53.2151 191.5330 0001206  83.9012 276.2118 15.08831366 75788,6917.907,95.438,540.606,538.937,0.0
52706.0,STARLINK-3970,PAYLOAD,2023-09-27 04:13:34,15.08836919,0.0001614,53.2159,189.7471,107.3494,252.7675,-8.9729e-06,-4.31e-06,0.0,0 STARLINK-3970,1 52706U 22053BC  23270.17609271 -.00000431  00000-0 -89729-5 0  9999,2 52706  53.2159 189.7471 0001614 107.3494 252.7675 15.08836919 75842,6917.89,95.438,540.871,538.638,0.0
52706.0,STARLINK-3970,PAYLOAD,2023-09-27 12:10:31,15.08817039,0.0001899,53.2162,188.2615,85.6967,274.4242,-0.00025001,-4.262e-05,0.0,0 STARLINK-3970,1 52706U 22053BC  23270.50730406 -.00004262  00000-0 -25001-3 0  9998,2 52706  53.2162 188.2615 0001899  85.6967 274.4242 15.08817039 76325,6917.951,95.439,541.129,538.502,0.0
52706.0,STARLINK-3970,PAYLOAD,2023-09-28 00:53:36,15.08818933,0.0001641,53.216,185.8817,93.0763,267.0417,8.4028e-06,-1.54e-06,0.0,0 STARLINK-3970,1 52706U 22053BC  23271.03723086 -.00000154  00000-0  84028-5 0  9994,2 52706  53.2160 185.8817 0001641  93.0763 267.0417 15.08818933 76407,6917.945,95.439,540.945,538.675,0.0
52706.0,STARLINK-3970,PAYLOAD,2023-09-28 21:33:37,15.08843909,0.0001393,53.2165,182.013,124.019,236.0934,0.00059767,9.238e-05,0.0,0 STARLINK-3970,1 52706U 22053BC  23271.89835167  .00009238  00000-0  59767-3 0  9993,2 52706  53.2165 182.0130 0001393 124.0190 236.0934 15.08843909 76537,6917.868,95.437,540.697,538.77,0.0
52706.0,STARLINK-3970,PAYLOAD,2023-09-29 03:55:09,15.0885501,0.0001694,53.2162,180.8223,118.9509,241.1653,0.00082858,0.00012929,0.0,0 STARLINK-3970,1 52706U 22053BC  23272.16330975  .00012929  00000-0  82858-3 0  9999,2 52706  53.2162 180.8223 0001694 118.9509 241.1653 15.08855010 76578,6917.835,95.437,540.871,538.528,0.0
52706.0,STARLINK-3970,PAYLOAD,2023-09-30 00:35:08,15.08894226,0.0001611,53.2155,176.9584,111.5684,248.548,0.0011205,0.00017616,0.0,0 STARLINK-3970,1 52706U 22053BC  23273.02440667  .00017616  00000-0  11205-2 0  9990,2 52706  53.2155 176.9584 0001611 111.5684 248.5480 15.08894226 76276,6917.715,95.434,540.694,538.465,0.0
52706.0,STARLINK-3970,PAYLOAD,2023-09-30 10:07:27,15.08867485,0.0001589,53.2157,175.1734,85.3394,274.7779,0.00020023,2.902e-05,0.0,0 STARLINK-3970,1 52706U 22053BC  23273.42184727  .00002902  00000-0  20023-3 0  9997,2 52706  53.2157 175.1734 0001589  85.3394 274.7779 15.08867485 76332,6917.796,95.436,540.761,538.562,0.0
52706.0,STARLINK-3970,PAYLOAD,2023-09-30 18:04:23,15.08814307,0.0001187,53.2153,173.6878,109.7526,250.3594,-0.0013026,-0.00020944,0.0,0 STARLINK-3970,1 52706U 22053BC  23273.75305446 -.00020944  00000-0 -13026-2 0  9998,2 52706  53.2153 173.6878 0001187 109.7526 250.3594 15.08814307 76387,6917.959,95.439,540.645,539.003,0.0
52706.0,STARLINK-3970,PAYLOAD,2023-10-01 00:25:57,15.08811313,0.0001731,53.2161,172.5052,114.8264,245.2908,0.0011313,0.00017748,0.0,0 STARLINK-3970,1 52706U 22053BC  23274.01802189  .00017748  00000-0  11313-2 0  9997,2 52706  53.2161 172.5052 0001731 114.8264 245.2908 15.08811313 76420,6917.968,95.439,541.031,538.636,0.0
52706.0,STARLINK-3970,PAYLOAD,2023-10-01 09:58:16,15.08835121,0.0001586,53.2147,170.7191,114.6868,245.4289,0.0014526,0.00022903,0.0,0 STARLINK-3970,1 52706U 22053BC  23274.41546472  .00022903  00000-0  14526-2 0  9999,2 52706  53.2147 170.7191 0001586 114.6868 245.4289 15.08835121 76915,6917.895,95.438,540.857,538.663,0.0
52706.0,STARLINK-3970,PAYLOAD,2023-10-01 21:05:58,15.08839039,0.0001635,53.2142,168.6374,115.7606,244.3555,0.00091314,0.00014274,0.0,0 STARLINK-3970,1 52706U 22053BC  23274.87914762  .00014274  00000-0  91314-3 0  9993,2 52706  53.2142 168.6374 0001635 115.7606 244.3555 15.08839039 76989,6917.883,95.438,540.879,538.617,0.0
52706.0,STARLINK-3970,PAYLOAD,2023-10-02 01:52:07,15.08850988,0.0001573,53.2142,167.7454,115.8421,244.2733,0.0011094,0.00017418,0.0,0 STARLINK-3970,1 52706U 22053BC  23275.07786561  .00017418  00000-0  11094-2 0  9999,2 52706  53.2142 167.7454 0001573 115.8421 244.2733 15.08850988 76584,6917.847,95.437,540.8,538.624,0.0
52706.0,STARLINK-3970,PAYLOAD,2023-10-02 09:49:03,15.0884187,0.0001493,53.2145,166.2575,99.7747,260.3413,0.0005082,7.81e-05,0.0,0 STARLINK-3970,1 52706U 22053BC  23275.40906734  .00007810  00000-0  50820-3 0  9998,2 52706  53.2145 166.2575 0001493  99.7747 260.3413 15.08841870 76637,6917.875,95.437,540.773,538.707,0.0
52706.0,STARLINK-3970,PAYLOAD,2023-10-02 20:56:45,15.08840147,0.0001635,53.2132,164.1775,98.8103,261.3074,0.00086195,0.00013457,0.0,0 STARLINK-3970,1 52706U 22053BC  23275.87274964  .00013457  00000-0  86195-3 0  9990,2 52706  53.2132 164.1775 0001635  98.8103 261.3074 15.08840147 77132,6917.88,95.438,540.876,538.614,0.0
52706.0,STARLINK-3970,PAYLOAD,2023-10-03 09:39:50,15.08840672,0.0001601,53.2135,161.7962,88.4336,271.684,0.00037944,5.756e-05,0.0,0 STARLINK-3970,1 52706U 22053BC  23276.40266983  .00005756  00000-0  37944-3 0  9993,2 52706  53.2135 161.7962 0001601  88.4336 271.6840 15.08840672 76780,6917.878,95.438,540.851,538.636,0.0
52706.0,STARLINK-3970,PAYLOAD,2023-10-03 22:22:55,15.08837752,0.0001611,53.2149,159.4164,89.9722,270.1455,0.00011055,1.472e-05,0.0,0 STARLINK-3970,1 52706U 22053BC  23276.93259250  .00001472  00000-0  11055-3 0  9996,2 52706  53.2149 159.4164 0001611  89.9722 270.1455 15.08837752 77297,6917.887,95.438,540.867,538.638,0.0
52706.0,STARLINK-3970,PAYLOAD,2023-10-04 09:30:38,15.08841005,0.0001855,53.2141,157.335,89.2745,270.8459,0.00015411,2.165e-05,0.0,0 STARLINK-3970,1 52706U 22053BC  23277.39627328  .00002165  00000-0  15411-3 0  9992,2 52706  53.2141 157.3350 0001855  89.2745 270.8459 15.08841005 76938,6917.877,95.437,541.026,538.459,0.0
52706.0,STARLINK-3970,PAYLOAD,2023-10-04 22:13:42,15.08855024,0.0001355,53.2149,154.9548,90.0615,270.0533,0.00037463,5.682e-05,0.0,0 STARLINK-3970,1 52706U 22053BC  23277.92618495  .00005682  00000-0  37463-3 0  9994,2 52706  53.2149 154.9548 0001355  90.0615 270.0533 15.08855024 77447,6917.834,95.437,540.637,538.762,0.0
52706.0,STARLINK-3970,PAYLOAD,2023-10-05 01:24:28,15.08860244,0.0001371,53.2147,154.3593,91.7866,268.3283,0.00046583,7.138e-05,0.0,0 STARLINK-3970,1 52706U 22053BC  23278.05866217  .00007138  00000-0  46583-3 0  9997,2 52706  53.2147 154.3593 0001371  91.7866 268.3283 15.08860244 77030,6917.819,95.436,540.632,538.735,0.0
52706.0,STARLINK-3970,PAYLOAD,2023-10-05 09:21:24,15.08848479,0.0001298,53.2165,152.8729,101.1216,258.9922,0.00017853,2.555e-05,0.0,0 STARLINK-3970,1 52706U 22053BC  23278.38986516  .00002555  00000-0  17853-3 0  9994,2 52706  53.2165 152.8729 0001298 101.1216 258.9922 15.08848479 77083,6917.854,95.437,540.617,538.822,0.0
52706.0,STARLINK-3970,PAYLOAD,2023-10-05 18:53:43,15.08843621,0.0001839,53.215,151.0889,99.539,260.581,7.4372e-05,8.96e-06,0.0,0 STARLINK-3970,1 52706U 22053BC  23278.78730785  .00000896  00000-0  74372-4 0  9999,2 52706  53.2150 151.0889 0001839  99.5390 260.5810 15.08843621 77145,6917.869,95.437,541.007,538.462,0.0
52706.0,STARLINK-3970,PAYLOAD,2023-10-05 22:04:29,15.08843865,0.0001734,53.2157,150.4939,102.2338,257.8848,7.5648e-05,9.16e-06,0.0,0 STARLINK-3970,1 52706U 22053BC  23278.91978685  .00000916  00000-0  75648-4 0  9997,2 52706  53.2157 150.4939 0001734 102.2338 257.8848 15.08843865 77598,6917.869,95.437,540.933,538.534,0.0
52706.0,STARLINK-3970,PAYLOAD,2023-10-06 01:15:15,15.08845594,0.0001642,53.2156,149.8986,106.0634,254.0539,0.0001178,1.588e-05,0.0,0 STARLINK-3970,1 52706U 22053BC  23279.05226571  .00001588  00000-0  11780-3 0  9995,2 52706  53.2156 149.8986 0001642 106.0634 254.0539 15.08845594 77610,6917.863,95.437,540.864,538.592,0.0
